#dP2018  7 26  0  0  0.00000000      96 __u+U IGS08 FIT  IAC
## 2011 345600.00000000   900.00000000 58325 0.0000000000000
+   85   C01C02C03C04C05C06C07C08C09C10C11C12C13C14E01E02E03
+        E04E05E07E08E09E11E12E14E18E19E24E26E30G01G02G03G05
+        G06G07G08G09G10G11G12G13G14G15G16G17G18G19G20G21G22
+        G23G24G25G26G27G28G29G30G31G32J01R01R02R03R04R05R07
+        R08R09R10R11R13R14R15R16R17R18R19R20R21R22R23R24R26
++        12 12 12 13 12  9  8  8  8  8  7  8  8  8  7  7  7
++         7  7  7  7  7  7  8  7  7  7  7  7  7  3  3  3  3
++         3  3  3  3  3  3  6  3  3  3  6  3  3  3  3  6  3
++         3  3  6  4  3  3  3  3  6  3  8  6  5  5  5  7  5
++         5  5  5  5  5  5  5  5  5  5  5  5  5  5  5  6  8
%c M  cc GPS ccc cccc cccc cccc cccc ccccc ccccc ccccc ccccc
%c cc cc ccc ccc cccc cccc cccc cccc ccccc ccccc ccccc ccccc
%f  1.2500000  1.025000000  0.00000000000  0.000000000000000
%f  0.0000000  0.000000000  0.00000000000  0.000000000000000
%i    0    0    0    0      0      0      0      0         0
%i    0    0    0    0      0      0      0      0         0
/* INFORMATION & ANALYSIS CENTER (IAC)            FINAL DATA
/* S/V CLOCKS ARE ALIGNED TO GPS & GLONASS TIME RESPECTIVELY
/* USING THE BROADCAST EPHEMERIS                            
/* PCV:IGS14_2000 OL/AL:FES2004  NONE     YN ORB:CoN CLK:CoN
*  2018 07 26 15 15  0.00000000
PC01 -32296.157854  27124.246383   -872.317150    389.365278
PC02   4400.701237  41934.383471    103.034026    -58.259059
PC03 -14722.096625  39497.466722  -1010.629383   -165.555621
PC04 -39625.356813  14389.556624   -710.976858   -255.214178
PC05  21874.382090  36060.918664    236.386587    274.808712
PC06 -13611.075845  21515.000173  33859.498006    121.574294
PC07 -24081.552649  34001.155292  -7837.457800     50.894097
PC08  -6796.196871  33742.622530 -24103.399608    455.840262
PC09   1347.544640  25845.083933  33523.778182     84.101402
PC10 -11429.400928  35132.341469 -20533.621346   -416.643975
PC11  -2864.601698  17776.239840 -21248.002342   -608.055863
PC12 -17971.585331   1431.641676 -21277.588488    531.905715
PC13   1273.048716  39814.865819 -13429.864337   -196.186844
PC14 -14849.578919  16058.469438  17364.317783    300.669832
PE01 -20610.722963  20506.850091   5594.267647   -399.098298
PE02  20592.352758 -20520.619238  -5560.711532     21.014983
PE03  21619.875891  -9666.321709 -17740.232259    -58.726563
PE04  -1292.138835  17144.219891  24106.640606    -83.237927
PE05  29375.329199   3512.706344   -947.731528    222.159688
PE07 -19929.816645 -14575.399009 -16317.651743     -8.917475
PE08   1093.150966 -17004.893940 -24192.707604   6536.286066
PE09  20018.417244  14323.662811  16443.504032   6723.960458
PE11  15470.311304  24085.109566   7559.402791   2917.365688
PE12   2800.333658  27099.071016 -11598.044756   4687.538718
PE14  -8406.027692 -18572.106926  12585.005669   6545.291995
PE18   3706.432643  24170.684126 -21031.965012   6030.341099
PE19 -22999.828465   8560.807278  16557.337859    -13.769601
PE24   8472.206423  14872.542535 -24157.243115   6580.518391
PE26 -18817.493639  -7266.807854 -21667.773183   5665.678112
PE30   8644.646288 -25035.898842  13205.319074   5646.965829
PG01  13205.424436 -12964.091051  18773.978016    -69.734351
PG02 -14127.425246 -10652.142916 -19318.264556     46.760765
PG03  22782.778322 -13512.264848  -1413.097446    111.725564
PG05 -21099.060599  -1386.344258 -16309.829357     -4.052496
PG06  -6696.809528 -23404.428171 -10564.989584    383.194580
PG07   5943.761444 -24609.144241  -6962.373804    152.430108
PG08  22826.487594   2800.413733  13462.263769   -109.493337
PG09   6314.905076 -14136.774555 -21607.119492    512.875557
PG10   1033.121119  16180.402086  21050.909410    188.339558
PG11  13938.736423  -8274.465086  20490.911502   -728.186592
PG12 -24595.447804   9195.052096   3067.032964    318.387573
PG13 -22755.562611 -11464.153803   7405.813054    -91.914485
PG14  17877.238904  18704.046598   6701.495853    -97.652585
PG15 -22037.487856   1399.131947  14811.241505   -349.938696
PG16  20123.635363   3632.351952 -17334.895788     16.217533
PG17 -10609.447360 -19451.744479  15123.911273    -74.129078
PG18  15044.865509  -3366.641763  21144.846408     38.260586
PG19 -17607.068833 -18619.778879   6373.339831   -417.160406
PG20  -8168.603998  19826.153737  15496.651759    513.074314
PG21  -1401.857764  26284.173643  -2865.967334   -361.923140
PG22  24090.020921  -8849.402700   7038.786565   -469.867424
PG23  17019.187828  -6189.833531 -19266.125602   -213.877915
PG24 -14531.515407   8947.766277  20164.209625    -53.114769
PG25 -17407.231508  17241.354706 -10138.255762   -622.024813
PG26  11860.876382  10574.912265 -21309.316714    -71.533128
PG27  23658.389975  12005.255833   2945.443294    358.520420
PG28   3061.116037 -16615.788600  21128.108472    733.951278
PG29  -8490.269243  12022.177308 -22135.862051    407.690828
PG30   -337.529164 -26274.619048   3185.975295     45.735481
PG31   7430.937842  22032.229476 -12405.197304    105.057418
PG32  11693.080241  18984.555561  14543.443359   -466.695662
PJ01 -28757.830067  29083.542484  15546.742765   -165.457673
PR01  24678.603731  -3858.848930  -5122.505910     29.624443
PR02  10832.113000 -10232.377397 -20674.726397    321.585217
PR03  -8658.003209 -10026.300618 -21746.305648    138.744195
PR04 -23284.234837  -3640.284073  -9721.229561    269.970117
PR05 -23852.042007   5018.141511   7537.419207    -46.284707
PR07   9173.148835   9967.102808  21659.976725    -43.331415
PR08  22948.691345   4039.390811  10437.757985     22.096699
PR09 -11014.582000  22930.124664  -2338.354097     20.057993
PR10   -886.945444  18593.706604 -17503.749076     28.599665
PR11  10712.058084   3195.142697 -22909.176430    -35.780421
PR13  10722.847040 -23036.571222   2136.102751    -12.932264
PR14    663.905331 -18696.339836  17342.768763     29.424594
PR15  -8152.680785  -7262.404072  23067.602986    -13.696577
PR16 -15118.321323  13343.682070  15536.244104     97.823579
PR17 -10968.473869 -22375.254451   5541.296238    150.993826
PR18 -16170.038063 -16079.437091 -11363.207439    204.402130
PR19 -12390.109081  -1110.284211 -22275.604837    -57.068386
PR20   -847.283975  16049.141864 -19824.996226   -346.506230
PR21  11177.879286  22321.687988  -5183.310916      5.259507
PR22  16194.679779  14733.651000  13193.442993    -57.014702
PR23  10399.705600  -3110.909172  23069.079743    168.119556
PR24   -152.864869 -16750.269969  19200.827315   -169.346733
PR26  -1354.773697  15292.416193 -20356.008761     36.841544
EOF
